#aV2019  1 12  0  0  0.00000000     288 DD+AD WGS84 FIT  NGA
## 2035 518400.00000000   300.00000000 58495 0.0000000000000
+   31     1  2  3  5  6  7  8  9 10 11 12 13 14 15 16 17 18
+         19 20 21 22 23 24 25 26 27 28 29 30 31 32  0  0  0
+          0  0  0  0  0  0  0  0  0  0  0  0  0  0  0  0  0
+          0  0  0  0  0  0  0  0  0  0  0  0  0  0  0  0  0
+          0  0  0  0  0  0  0  0  0  0  0  0  0  0  0  0  0
++         2  2  2  2  2  2  2  2  2  2  2  2  2  2  2  2  2
++         2  2  2  2  2  2  2  2  2  2  2  2  2  2  0  0  0
++         0  0  0  0  0  0  0  0  0  0  0  0  0  0  0  0  0
++         0  0  0  0  0  0  0  0  0  0  0  0  0  0  0  0  0
++         0  0  0  0  0  0  0  0  0  0  0  0  0  0  0  0  0
%c cc cc ccc ccc cccc cccc cccc cccc ccccc ccccc ccccc ccccc
%c cc cc ccc ccc cccc cccc cccc cccc ccccc ccccc ccccc ccccc
%f  0.0000000  0.000000000  0.00000000000  0.000000000000000
%f  0.0000000  0.000000000  0.00000000000  0.000000000000000
%i    0    0    0    0      0      0      0      0         0
%i    0    0    0    0      0      0      0      0         0
/*      NGA, ST. LOUIS,MO.                                  
/*   EPHEMERIS COMPUTED FROM 2 DAYS OF DATA                 
/*   EPOCHA v3 SMOOTHER                                     
/*   G1762 IERS2010 SATAF SATAPC                            
*  2019  1 12 23 15  0.00000000
P  1   2131.827612 -16337.067528 -20931.981290   -144.364731                    
V  1  24496.247400  -9413.042019  10221.224917     -0.063716                    
P  2 -20810.915506  15355.725242   6151.306808   -111.495041                    
V  2  -7700.352867    496.753226 -30421.561839     -0.101102                    
P  3  -7856.921236 -19774.464943 -15977.098286    176.784493                    
V  3  17263.730163  10623.241593 -21620.102014      0.025533                    
P  5 -12187.855526  10024.887206  21263.490618      0.788063                    
V  5 -22024.719210 -16137.655258  -4789.207899      0.001332                    
P  6 -25056.051233   6167.453019  -6309.947252    298.078490                    
V  6   6475.846492  -5299.317477 -30674.887852     -0.075473                    
P  7 -13704.885985 -10157.874343  20707.524600     52.828864                    
V  7  23464.954692 -10387.621442  10102.229763     -0.070977                    
P  8   6218.528741 -25202.161099   5191.006077   -128.850335                    
V  8   1910.321891   6791.796512  31160.107400     -0.012981                    
P  9  -8941.848259 -19689.535174  15368.754752    472.449900                    
V  9   4225.522104 -19291.412614 -22195.418408     -0.045774                    
P 10  23229.099500   9514.118034  -8922.160261    136.605459                    
V 10   7676.157246   8677.970025  28896.244731     -0.064326                    
P 11   4293.520535 -22122.196645 -14766.309688   -676.152509                    
V 11  14095.014543 -11434.296111  21808.977066      0.052465                    
P 12   4285.205567  19357.059005 -17963.470111    276.854984                    
V 12 -17626.854066 -13676.834637 -18977.648285     -0.030857                    
P 13 -12638.769937  20680.263492  10707.860444    -78.520398                    
V 13   1007.907742 -13932.770178  27822.455244      0.012612                    
P 14  15639.095906  -6459.410955 -20125.590206    -93.250300                    
V 14  -3973.334176  26007.936859 -11441.476922      0.005880                    
P 15  -2352.863182  26126.888791   2178.082158   -332.485890                    
V 15  -4117.351394  -3227.810133  31090.605754      0.015467                    
P 16  12457.847699  -8297.057093  21814.017020    -12.361822                    
V 16  20849.619142  18664.967111  -4353.108187     -0.023376                    
P 17 -13971.601581  -4275.774486 -21776.221318     -5.579018                    
V 17   4954.351378 -28140.721226   2205.379412      0.052592                    
P 18  12142.840999 -18149.772088 -15494.809140     15.185370                    
V 18  17937.989599  -6348.025858  22326.742275      0.038047                    
P 19 -15653.354024   6356.542646 -20812.671750   -363.984298                    
V 19   4873.167815 -25224.042873 -11427.517470      0.039979                    
P 20  22640.837508  13982.328362   1007.181324    521.054664                    
V 20  -3065.269101   2466.717814  30936.482450      0.004045                    
P 21  16232.275355   8144.510046  20160.146701   -270.205699                    
V 21 -20914.749276  11706.618350  12717.658771      0.068895                    
P 22   -459.393117 -17757.310754 -19525.289923   -621.332067                    
V 22  22156.686970  12541.757202 -11742.034319     -0.087429                    
P 23  -2727.142995 -25273.514966   7226.751191   -200.709804                    
V 23   4348.602134  -8509.978671 -29779.530368      0.011501                    
P 24  -6408.100341  18072.362301 -18389.070542    -60.714648                    
V 24 -21746.422082   8429.468146  16311.281255     -0.005710                    
P 25  15025.204124  19783.043804  -9944.352186   -705.039033                    
V 25 -10967.106129  -5797.232429 -28411.167554     -0.054626                    
P 26  19656.141276  -1576.386857  17863.556022     94.700973                    
V 26  17513.686729  14471.206932 -17816.539870      0.106232                    
P 27  11641.302644 -19170.347826  13914.988054    -47.992105                    
V 27    -87.185525  18001.920798  24997.421147     -0.065463                    
P 28 -21733.892267 -13003.151708  -7229.266732    761.733818                    
V 28  -6021.020854  -8294.663631  30516.435890      0.011579                    
P 29   4839.514718  22479.136031  13273.233849    294.627785                    
V 29  -4651.362229  16274.176775 -25823.669575     -0.083386                    
P 30 -22417.927941  -2571.993562  14159.122774    -34.920262                    
V 30  15925.871601  -8600.718025  23505.742777     -0.061471                    
P 31  25487.875024  -7612.862783  -3271.252036     66.191523                    
V 31  -2943.855752   3746.382360 -31117.105698     -0.026687                    
P 32  15256.158489   1131.876874 -21672.568051   -277.482314                    
V 32  -2929.830668  27471.806302   -728.217177      0.170409                    
EOF
